*******************************************************************************
JPL/HORIZONS               3753 Cruithne (1986 TO)         2023-May-05 16:47:32
Rec #:    3753 (+COV) Soln.date: 2023-Mar-01_06:10:23   # obs: 1216 (1973-2022)
 
IAU76/J2000 helio. ecliptic osc. elements (au, days, deg., period=Julian yrs):
 
  EPOCH=  2456900.5 ! 2014-Aug-31.00 (TDB)         Residual RMS= .35645
   EC= .5148627256994029   QR= .4840184658385133   TP= 2457012.169995938
   OM= 126.2462939076055   W=  43.80978547847901   IN= 19.80747881540994
   A= .9976938311662474    MA= 249.5553600271496   ADIST= 1.511369196493981
   PER= .99656             N= .9890269900000001    ANGMOM= .014729875
   DAN= .53459             DDN= 1.16671            L= 168.3137556
   B= 13.566979            MOID= .0710535          TP= 2014-Dec-20.6699959380
 
Asteroid physical parameters (km, seconds, rotational period in hours):
   GM= n.a.                RAD= 1.0355             ROTPER= 27.3099
   H= 15.5                 G= .150                 B-V= n.a.
                           ALBEDO= .365            STYP= Q
 
ASTEROID comments: 
1: soln ref.= JPL#240, OCC=0
2: source=ORB
*******************************************************************************

  
  

*******************************************************************************
Ephemeris / WWW_USER Fri May  5 16:47:32 2023 Pasadena, USA      / Horizons
*******************************************************************************
Target body name: 3753 Cruithne (1986 TO)         {source: JPL#240}
Center body name: Earth (399)                     {source: DE441}
Center-site name: (user defined site below)
*******************************************************************************
Start time      : A.D. 2007-Sep-01 00:00:00.0000 TDB
Stop  time      : A.D. 2008-Sep-01 00:00:00.0000 TDB
Step-size       : 1440 minutes
*******************************************************************************
Center geodetic : 286.0058, 40.7517, -2.02709E-12 {E-lon(deg),Lat(deg),Alt(km)}
Center cylindric: 286.0058, 4838.6361, 4141.57364 {E-lon(deg),Dxy(km),Dz(km)}
Center pole/equ : ITRF93                          {East-longitude positive}
Center radii    : 6378.137, 6378.137, 6356.752 km {Equator_a, b, pole_c}
Small perturbers: Yes                             {source: SB441-N16}
Output units    : KM-S
Calendar mode   : Mixed Julian/Gregorian
Output type     : GEOMETRIC cartesian states
Output format   : 1 (position only)
EOP file        : eop.230504.p230727
EOP coverage    : DATA-BASED 1962-JAN-20 TO 2023-MAY-04. PREDICTS-> 2023-JUL-26
Reference frame : Ecliptic of J2000.0
*******************************************************************************
Initial IAU76/J2000 heliocentric ecliptic osculating elements (au, days, deg.):
  EPOCH=  2456900.5 ! 2014-Aug-31.00 (TDB)         Residual RMS= .35645        
   EC= .5148627256994029   QR= .4840184658385133   TP= 2457012.169995938       
   OM= 126.2462939076055   W=  43.80978547847901   IN= 19.80747881540994       
  Equivalent ICRF heliocentric cartesian coordinates (au, au/d):
   X= 1.215347990905840E+00  Y= 5.153520927692684E-01  Z=-2.481738801145509E-01
  VX=-7.990656955364673E-03 VY= 8.039467650712289E-03 VZ= 3.939584837771865E-03
Asteroid physical parameters (km, seconds, rotational period in hours):        
   GM= n.a.                RAD= 1.0355             ROTPER= 27.3099             
   H= 15.5                 G= .150                 B-V= n.a.                   
                           ALBEDO= .365            STYP= Q                     
*******************************************************************************
            JDTDB,            Calendar Date (TDB),                      X,                      Y,                      Z,
**************************************************************************************************************************
$$SOE
2454540.500000000, A.D. 2008-Mar-15 00:00:00.0000,  2.385162306343635E+08, -1.552443421271065E+08,  3.905209300748467E+06,
2454541.500000000, A.D. 2008-Mar-16 00:00:00.0000,  2.409457311847109E+08, -1.526370846674396E+08,  3.267406183019876E+06,
2454542.500000000, A.D. 2008-Mar-17 00:00:00.0000,  2.433117070830647E+08, -1.499976863305572E+08,  2.628915508594103E+06,
2454543.500000000, A.D. 2008-Mar-18 00:00:00.0000,  2.456141264115553E+08, -1.473274818152933E+08,  1.989883695288725E+06,
2454544.500000000, A.D. 2008-Mar-19 00:00:00.0000,  2.478529685194058E+08, -1.446277785285969E+08,  1.350452191212967E+06,
2454545.500000000, A.D. 2008-Mar-20 00:00:00.0000,  2.500282216746534E+08, -1.418998598385945E+08,  7.107574144244790E+05,
2454546.500000000, A.D. 2008-Mar-21 00:00:00.0000,  2.521398815890340E+08, -1.391449884711288E+08,  7.093070873191953E+04,
2454547.500000000, A.D. 2008-Mar-22 00:00:00.0000,  2.541879507925590E+08, -1.363644098358484E+08, -5.689016680200770E+05,
2454548.500000000, A.D. 2008-Mar-23 00:00:00.0000,  2.561724387727849E+08, -1.335593550600849E+08, -1.208618509356387E+06,
2454549.500000000, A.D. 2008-Mar-24 00:00:00.0000,  2.580933627117016E+08, -1.307310435407716E+08, -1.848103572129399E+06,
2454550.500000000, A.D. 2008-Mar-25 00:00:00.0000,  2.599507485892958E+08, -1.278806849050744E+08, -2.487245437375635E+06,
2454551.500000000, A.D. 2008-Mar-26 00:00:00.0000,  2.617446324062964E+08, -1.250094803788477E+08, -3.125937331535064E+06,
2454552.500000000, A.D. 2008-Mar-27 00:00:00.0000,  2.634750613174825E+08, -1.221186236647777E+08, -3.764076925556928E+06,
2454553.500000000, A.D. 2008-Mar-28 00:00:00.0000,  2.651420945458077E+08, -1.192093015028854E+08, -4.401566130926944E+06,
2454554.500000000, A.D. 2008-Mar-29 00:00:00.0000,  2.667458040448580E+08, -1.162826941145597E+08, -5.038310908926129E+06,
2454555.500000000, A.D. 2008-Mar-30 00:00:00.0000,  2.682862749744735E+08, -1.133399757204567E+08, -5.674221103824712E+06,
2454556.500000000, A.D. 2008-Mar-31 00:00:00.0000,  2.697636061445063E+08, -1.103823152779163E+08, -6.309210302799419E+06,
2454557.500000000, A.D. 2008-Apr-01 00:00:00.0000,  2.711779106609346E+08, -1.074108775040887E+08, -6.943195715352617E+06,
2454558.500000000, A.D. 2008-Apr-02 00:00:00.0000,  2.725293170679134E+08, -1.044268241257232E+08, -7.576098052705213E+06,
2454559.500000000, A.D. 2008-Apr-03 00:00:00.0000,  2.738179712879097E+08, -1.014313151136371E+08, -8.207841373483479E+06,
2454560.500000000, A.D. 2008-Apr-04 00:00:00.0000,  2.750440395613232E+08, -9.842550942957699E+07, -8.838352849936776E+06,
2454561.500000000, A.D. 2008-Apr-05 00:00:00.0000,  2.762077123074280E+08, -9.541056460680777E+07, -9.467562407542128E+06,
2454562.500000000, A.D. 2008-Apr-06 00:00:00.0000,  2.773092083569161E+08, -9.238763445873421E+07, -1.009540221267731E+07,
2454563.500000000, A.D. 2008-Apr-07 00:00:00.0000,  2.783487784839619E+08, -8.935786454903728E+07, -1.072180603473609E+07,
2454564.500000000, A.D. 2008-Apr-08 00:00:00.0000,  2.793267069224460E+08, -8.632238580318189E+07, -1.134670857718231E+07,
2454565.500000000, A.D. 2008-Apr-09 00:00:00.0000,  2.802433099164848E+08, -8.328230750474569E+07, -1.197004491819600E+07,
2454566.500000000, A.D. 2008-Apr-10 00:00:00.0000,  2.810989313073219E+08, -8.023871135983422E+07, -1.259175018644419E+07,
2454567.500000000, A.D. 2008-Apr-11 00:00:00.0000,  2.818939361922073E+08, -7.719264797064215E+07, -1.321175951980826E+07,
2454568.500000000, A.D. 2008-Apr-12 00:00:00.0000,  2.826287041890708E+08, -7.414513613444513E+07, -1.383000826046256E+07,
2454569.500000000, A.D. 2008-Apr-13 00:00:00.0000,  2.833036236054697E+08, -7.109716446860592E+07, -1.444643228317082E+07,
2454570.500000000, A.D. 2008-Apr-14 00:00:00.0000,  2.839190871544591E+08, -6.804969441450968E+07, -1.506096835315998E+07,
2454571.500000000, A.D. 2008-Apr-15 00:00:00.0000,  2.844754892381925E+08, -6.500366372988591E+07, -1.567355444543462E+07,
2454572.500000000, A.D. 2008-Apr-16 00:00:00.0000,  2.849732244800283E+08, -6.195998989469416E+07, -1.628412999810793E+07,
2454573.500000000, A.D. 2008-Apr-17 00:00:00.0000,  2.854126871213746E+08, -5.891957317855359E+07, -1.689263609973814E+07,
2454574.500000000, A.D. 2008-Apr-18 00:00:00.0000,  2.857942709864352E+08, -5.588329932357533E+07, -1.749901562174411E+07,
2454575.500000000, A.D. 2008-Apr-19 00:00:00.0000,  2.861183698375884E+08, -5.285204187683932E+07, -1.810321330708292E+07,
2454576.500000000, A.D. 2008-Apr-20 00:00:00.0000,  2.863853780301559E+08, -4.982666420624182E+07, -1.870517582204147E+07,
2454577.500000000, A.D. 2008-Apr-21 00:00:00.0000,  2.865956914097185E+08, -4.680802120394425E+07, -1.930485177419491E+07,
2454578.500000000, A.D. 2008-Apr-22 00:00:00.0000,  2.867497083891367E+08, -4.379696066170457E+07, -1.990219169842547E+07,
2454579.500000000, A.D. 2008-Apr-23 00:00:00.0000,  2.868478311214158E+08, -4.079432430898888E+07, -2.049714801458907E+07,
2454580.500000000, A.D. 2008-Apr-24 00:00:00.0000,  2.868904666719487E+08, -3.780094853731604E+07, -2.108967496337594E+07,
2454581.500000000, A.D. 2008-Apr-25 00:00:00.0000,  2.868780281054975E+08, -3.481766487842087E+07, -2.167972852961598E+07,
2454582.500000000, A.D. 2008-Apr-26 00:00:00.0000,  2.868109354423500E+08, -3.184530034270350E+07, -2.226726636301647E+07,
2454583.500000000, A.D. 2008-Apr-27 00:00:00.0000,  2.866896164991168E+08, -2.888467774344706E+07, -2.285224770466487E+07,
2454584.500000000, A.D. 2008-Apr-28 00:00:00.0000,  2.865145077037253E+08, -2.593661612182779E+07, -2.343463332298609E+07,
2454585.500000000, A.D. 2008-Apr-29 00:00:00.0000,  2.862860550509665E+08, -2.300193134027576E+07, -2.401438545538186E+07,
2454586.500000000, A.D. 2008-Apr-30 00:00:00.0000,  2.860047154309767E+08, -2.008143681745039E+07, -2.459146774153452E+07,
2454587.500000000, A.D. 2008-May-01 00:00:00.0000,  2.856709585923511E+08, -1.717594422566524E+07, -2.516584512197901E+07,
2454588.500000000, A.D. 2008-May-02 00:00:00.0000,  2.852852699439254E+08, -1.428626376297593E+07, -2.573748366350434E+07,
